KUIPER-00294            
1 68594U 26072X   26099.50711409  .00024641  00000+0  69623-3 0  9997
2 68594  51.8673 149.1185 0009888 135.7594 224.4184 15.36164003   813
